{"fetched_at":"2026-07-20T18:29:28.020Z","source":"https://celestrak.org/NORAD/elements/gp.php?NAME=ICEYE&FORMAT=JSON","constellation":"iceye","records":[{"OBJECT_NAME":"ICEYE-X40","OBJECT_ID":"2024-149CK","EPOCH":"2026-07-19T18:22:45.357600","CLASSIFICATION_TYPE":"U","MEAN_MOTION":14.98092195,"ECCENTRICITY":0.0003553,"INCLINATION":97.6806,"RA_OF_ASC_NODE":276.7385,"ARG_OF_PERICENTER":351.9346,"MEAN_ANOMALY":8.1819,"EPHEMERIS_TYPE":0,"NORAD_CAT_ID":60549,"ELEMENT_SET_NO":999,"REV_AT_EPOCH":10495,"BSTAR":0.00012711112,"MEAN_MOTION_DOT":0.00001446,"MEAN_MOTION_DDOT":0},{"OBJECT_NAME":"ICEYE-X49","OBJECT_ID":"2024-247H","EPOCH":"2026-07-17T08:01:48.831744","CLASSIFICATION_TYPE":"U","MEAN_MOTION":15.13466886,"ECCENTRICITY":0.00013347,"INCLINATION":44.9994,"RA_OF_ASC_NODE":196.3565,"ARG_OF_PERICENTER":239.0218,"MEAN_ANOMALY":121.0529,"EPHEMERIS_TYPE":0,"NORAD_CAT_ID":62384,"ELEMENT_SET_NO":999,"REV_AT_EPOCH":8674,"BSTAR":0.00009597161,"MEAN_MOTION_DOT":0.00001489,"MEAN_MOTION_DDOT":0},{"OBJECT_NAME":"ICEYE-X47","OBJECT_ID":"2024-247N","EPOCH":"2026-07-19T22:48:57.419712","CLASSIFICATION_TYPE":"U","MEAN_MOTION":15.13496815,"ECCENTRICITY":0.00008999,"INCLINATION":44.996,"RA_OF_ASC_NODE":181.9747,"ARG_OF_PERICENTER":19.5155,"MEAN_ANOMALY":340.5757,"EPHEMERIS_TYPE":0,"NORAD_CAT_ID":62389,"ELEMENT_SET_NO":999,"REV_AT_EPOCH":8714,"BSTAR":0.000074970789,"MEAN_MOTION_DOT":0.00001108,"MEAN_MOTION_DDOT":0},{"OBJECT_NAME":"ICEYE-X42","OBJECT_ID":"2025-009CT","EPOCH":"2026-07-20T03:21:00.183744","CLASSIFICATION_TYPE":"U","MEAN_MOTION":14.91830392,"ECCENTRICITY":0.00013174,"INCLINATION":97.7388,"RA_OF_ASC_NODE":278.86,"ARG_OF_PERICENTER":98.7909,"MEAN_ANOMALY":261.3459,"EPHEMERIS_TYPE":0,"NORAD_CAT_ID":62698,"ELEMENT_SET_NO":999,"REV_AT_EPOCH":8220,"BSTAR":0.00008847655,"MEAN_MOTION_DOT":0.00000838,"MEAN_MOTION_DDOT":0},{"OBJECT_NAME":"ICEYE-X41","OBJECT_ID":"2025-009CV","EPOCH":"2026-07-19T23:01:52.621248","CLASSIFICATION_TYPE":"U","MEAN_MOTION":14.96928889,"ECCENTRICITY":0.00004868,"INCLINATION":97.7058,"RA_OF_ASC_NODE":280.0108,"ARG_OF_PERICENTER":186.2968,"MEAN_ANOMALY":173.8248,"EPHEMERIS_TYPE":0,"NORAD_CAT_ID":62700,"ELEMENT_SET_NO":999,"REV_AT_EPOCH":8231,"BSTAR":0.00016183661,"MEAN_MOTION_DOT":0.00001801,"MEAN_MOTION_DDOT":0},{"OBJECT_NAME":"ICEYE-X45","OBJECT_ID":"2025-009DA","EPOCH":"2026-07-20T03:09:26.098848","CLASSIFICATION_TYPE":"U","MEAN_MOTION":15.00847512,"ECCENTRICITY":0.00010088,"INCLINATION":97.8416,"RA_OF_ASC_NODE":288.0935,"ARG_OF_PERICENTER":80.2527,"MEAN_ANOMALY":279.8811,"EPHEMERIS_TYPE":0,"NORAD_CAT_ID":62705,"ELEMENT_SET_NO":999,"REV_AT_EPOCH":8262,"BSTAR":0.00022165646,"MEAN_MOTION_DOT":0.00002756,"MEAN_MOTION_DDOT":0},{"OBJECT_NAME":"ICEYE-X44","OBJECT_ID":"2025-009DC","EPOCH":"2026-07-20T04:36:11.628000","CLASSIFICATION_TYPE":"U","MEAN_MOTION":14.96182126,"ECCENTRICITY":0.00021674,"INCLINATION":97.7054,"RA_OF_ASC_NODE":279.7976,"ARG_OF_PERICENTER":62.4886,"MEAN_ANOMALY":297.6555,"EPHEMERIS_TYPE":0,"NORAD_CAT_ID":62707,"ELEMENT_SET_NO":999,"REV_AT_EPOCH":10487,"BSTAR":0.000099606729,"MEAN_MOTION_DOT":0.00001065,"MEAN_MOTION_DDOT":0},{"OBJECT_NAME":"ICEYE-X48","OBJECT_ID":"2025-052AV","EPOCH":"2026-07-20T02:52:09.864768","CLASSIFICATION_TYPE":"U","MEAN_MOTION":14.98145386,"ECCENTRICITY":0.00043226,"INCLINATION":97.6842,"RA_OF_ASC_NODE":92.8005,"ARG_OF_PERICENTER":92.4344,"MEAN_ANOMALY":267.7374,"EPHEMERIS_TYPE":0,"NORAD_CAT_ID":63253,"ELEMENT_SET_NO":999,"REV_AT_EPOCH":7360,"BSTAR":0.00016994119,"MEAN_MOTION_DOT":0.00001956,"MEAN_MOTION_DDOT":0},{"OBJECT_NAME":"ICEYE-X50","OBJECT_ID":"2025-052AX","EPOCH":"2026-07-20T06:45:16.118784","CLASSIFICATION_TYPE":"U","MEAN_MOTION":14.9537167,"ECCENTRICITY":0.00034013,"INCLINATION":97.6848,"RA_OF_ASC_NODE":92.5359,"ARG_OF_PERICENTER":92.5975,"MEAN_ANOMALY":267.5635,"EPHEMERIS_TYPE":0,"NORAD_CAT_ID":63255,"ELEMENT_SET_NO":999,"REV_AT_EPOCH":7359,"BSTAR":0.000037294545,"MEAN_MOTION_DOT":0.00000355,"MEAN_MOTION_DDOT":0},{"OBJECT_NAME":"ICEYE-X51","OBJECT_ID":"2025-052AZ","EPOCH":"2026-07-20T04:36:58.058496","CLASSIFICATION_TYPE":"U","MEAN_MOTION":15.00881292,"ECCENTRICITY":0.00020697,"INCLINATION":97.7618,"RA_OF_ASC_NODE":96.2313,"ARG_OF_PERICENTER":63.9648,"MEAN_ANOMALY":296.1789,"EPHEMERIS_TYPE":0,"NORAD_CAT_ID":63257,"ELEMENT_SET_NO":999,"REV_AT_EPOCH":7375,"BSTAR":0.00019583228,"MEAN_MOTION_DOT":0.00002431,"MEAN_MOTION_DDOT":0},{"OBJECT_NAME":"ICEYE-X46","OBJECT_ID":"2025-052BA","EPOCH":"2026-07-20T03:27:49.571136","CLASSIFICATION_TYPE":"U","MEAN_MOTION":14.95374811,"ECCENTRICITY":0.00015701,"INCLINATION":97.6852,"RA_OF_ASC_NODE":92.4008,"ARG_OF_PERICENTER":80.201,"MEAN_ANOMALY":279.9388,"EPHEMERIS_TYPE":0,"NORAD_CAT_ID":63258,"ELEMENT_SET_NO":999,"REV_AT_EPOCH":7357,"BSTAR":0.000045923172,"MEAN_MOTION_DOT":0.0000045,"MEAN_MOTION_DDOT":0},{"OBJECT_NAME":"ICEYE-X54","OBJECT_ID":"2025-135AU","EPOCH":"2026-07-20T07:07:28.499232","CLASSIFICATION_TYPE":"U","MEAN_MOTION":14.94746559,"ECCENTRICITY":0.00024442,"INCLINATION":97.7748,"RA_OF_ASC_NODE":315.4054,"ARG_OF_PERICENTER":168.4811,"MEAN_ANOMALY":191.6466,"EPHEMERIS_TYPE":0,"NORAD_CAT_ID":64570,"ELEMENT_SET_NO":999,"REV_AT_EPOCH":5884,"BSTAR":0.00010754833,"MEAN_MOTION_DOT":0.00001111,"MEAN_MOTION_DDOT":0},{"OBJECT_NAME":"ICEYE-X52","OBJECT_ID":"2025-135AW","EPOCH":"2026-07-20T07:09:42.541056","CLASSIFICATION_TYPE":"U","MEAN_MOTION":14.93662185,"ECCENTRICITY":0.00016638,"INCLINATION":97.7771,"RA_OF_ASC_NODE":315.1892,"ARG_OF_PERICENTER":173.0753,"MEAN_ANOMALY":187.049,"EPHEMERIS_TYPE":0,"NORAD_CAT_ID":64572,"ELEMENT_SET_NO":999,"REV_AT_EPOCH":5882,"BSTAR":0.000067801821,"MEAN_MOTION_DOT":0.0000066,"MEAN_MOTION_DDOT":0},{"OBJECT_NAME":"ICEYE-X56","OBJECT_ID":"2025-135AY","EPOCH":"2026-07-20T06:44:18.547008","CLASSIFICATION_TYPE":"U","MEAN_MOTION":14.95782349,"ECCENTRICITY":0.00017009,"INCLINATION":97.7773,"RA_OF_ASC_NODE":315.987,"ARG_OF_PERICENTER":172.5219,"MEAN_ANOMALY":187.6028,"EPHEMERIS_TYPE":0,"NORAD_CAT_ID":64574,"ELEMENT_SET_NO":999,"REV_AT_EPOCH":5887,"BSTAR":0.00016810474,"MEAN_MOTION_DOT":0.00001817,"MEAN_MOTION_DDOT":0},{"OBJECT_NAME":"ICEYE-X57","OBJECT_ID":"2025-135BC","EPOCH":"2026-07-20T06:26:14.481024","CLASSIFICATION_TYPE":"U","MEAN_MOTION":15.00863759,"ECCENTRICITY":0.00021213,"INCLINATION":97.8035,"RA_OF_ASC_NODE":317.8428,"ARG_OF_PERICENTER":55.7785,"MEAN_ANOMALY":304.3639,"EPHEMERIS_TYPE":0,"NORAD_CAT_ID":64578,"ELEMENT_SET_NO":999,"REV_AT_EPOCH":5898,"BSTAR":0.0002094036,"MEAN_MOTION_DOT":0.00002602,"MEAN_MOTION_DDOT":0},{"OBJECT_NAME":"ICEYE-X55","OBJECT_ID":"2025-135BF","EPOCH":"2026-07-20T06:57:00.475776","CLASSIFICATION_TYPE":"U","MEAN_MOTION":14.9537969,"ECCENTRICITY":0.00022016,"INCLINATION":97.777,"RA_OF_ASC_NODE":315.8182,"ARG_OF_PERICENTER":213.1208,"MEAN_ANOMALY":146.9875,"EPHEMERIS_TYPE":0,"NORAD_CAT_ID":64581,"ELEMENT_SET_NO":999,"REV_AT_EPOCH":5886,"BSTAR":0.00012478709,"MEAN_MOTION_DOT":0.0000132,"MEAN_MOTION_DDOT":0}]}
