ICEYE-X40               
1 60549U 24149CK  26200.76580275  .00001446  00000+0  12711-3 0  9993
2 60549  97.6806 276.7385 0003553 351.9346   8.1819 14.98092195104951
ICEYE-X49               
1 62384U 24247H   26198.33459296  .00001489  00000+0  95972-4 0  9996
2 62384  44.9994 196.3565 0001334 239.0218 121.0529 15.13466886 86748
ICEYE-X47               
1 62389U 24247N   26200.95066458  .00001108  00000+0  74971-4 0  9991
2 62389  44.9960 181.9747 0000899  19.5155 340.5757 15.13496815 87145
ICEYE-X42               
1 62698U 25009CT  26201.13958546  .00000838  00000+0  88477-4 0  9995
2 62698  97.7388 278.8600 0001317  98.7909 261.3459 14.91830392 82202
ICEYE-X41               
1 62700U 25009CV  26200.95963682  .00001801  00000+0  16184-3 0  9991
2 62700  97.7058 280.0108 0000486 186.2968 173.8248 14.96928889 82311
ICEYE-X45               
1 62705U 25009DA  26201.13155207  .00002756  00000+0  22166-3 0  9990
2 62705  97.8416 288.0935 0001008  80.2527 279.8811 15.00847512 82622
ICEYE-X44               
1 62707U 25009DC  26201.19180125  .00001065  00000+0  99607-4 0  9992
2 62707  97.7054 279.7976 0002167  62.4886 297.6555 14.96182126104872
ICEYE-X48               
1 63253U 25052AV  26201.11955862  .00001956  00000+0  16994-3 0  9993
2 63253  97.6842  92.8005 0004322  92.4344 267.7374 14.98145386 73609
ICEYE-X50               
1 63255U 25052AX  26201.28143656  .00000355  00000+0  37295-4 0  9993
2 63255  97.6848  92.5359 0003401  92.5975 267.5635 14.95371670 73594
ICEYE-X51               
1 63257U 25052AZ  26201.19233864  .00002431  00000+0  19583-3 0  9992
2 63257  97.7618  96.2313 0002069  63.9648 296.1789 15.00881292 73750
ICEYE-X46               
1 63258U 25052BA  26201.14432374  .00000450  00000+0  45923-4 0  9992
2 63258  97.6852  92.4008 0001570  80.2010 279.9388 14.95374811 73571
ICEYE-X54               
1 64570U 25135AU  26201.29685763  .00001111  00000+0  10755-3 0  9999
2 64570  97.7748 315.4054 0002444 168.4811 191.6466 14.94746559 58843
ICEYE-X52               
1 64572U 25135AW  26201.29840904  .00000660  00000+0  67802-4 0  9995
2 64572  97.7771 315.1892 0001663 173.0753 187.0490 14.93662185 58822
ICEYE-X56               
1 64574U 25135AY  26201.28077022  .00001817  00000+0  16810-3 0  9996
2 64574  97.7773 315.9870 0001700 172.5219 187.6028 14.95782349 58878
ICEYE-X57               
1 64578U 25135BC  26201.26822316  .00002602  00000+0  20940-3 0  9994
2 64578  97.8035 317.8428 0002121  55.7785 304.3639 15.00863759 58982
ICEYE-X55               
1 64581U 25135BF  26201.28958884  .00001320  00000+0  12479-3 0  9994
2 64581  97.7770 315.8182 0002201 213.1208 146.9875 14.95379690 58863
